#dP2017 12  1  0  0  0.00000000     288   u+U IGS14 FIT  GFZ                    
## 1977 432000.00000000   300.00000000 58088 0.0000000000000                    
+   87   C01C02C03C04C05C06C07C08C09C10C11C12C13C14E01E02E03                    
+        E04E05E07E08E09E11E12E14E18E19E22E24E26E30G01G02G03                    
+        G05G06G07G08G09G10G11G12G13G14G15G16G17G18G19G20G21                    
+        G22G23G24G25G26G27G28G29G30G31G32J01J02R01R02R03R04                    
+        R05R06R07R08R09R10R11R13R14R15R16R17R18R19R20R21R22                    
+        R23R24 00 00 00 00 00 00 00 00 00 00 00 00 00 00 00                    
++         0 10 10 10 10  8 10 10  5  6  7 10 10  5  6  7  6                    
++         6  6  8  5  5  7  6  6  6  5  6  5  8  6  6  6  5                    
++         6  6  5  6  5  6  8  5  7  6  5  9  5  7  6  5  6                    
++        10  7  6  6  5  5  7  7  7  8  5 10 10  9  8  6  8                    
++         9  7  6  7  7  6  5  6  6  7 10  7  8  8  9  5  9                    
++         7  7  0  0  0  0  0  0  0  0  0  0  0  0  0  0  0                    
%c M  cc GPS ccc cccc cccc cccc cccc ccccc ccccc ccccc ccccc                    
%c cc cc ccc ccc cccc cccc cccc cccc ccccc ccccc ccccc ccccc                    
%f  1.2500000  1.025000000  0.00000000000  0.000000000000000                    
%f  0.0000000  0.000000000  0.00000000000  0.000000000000000                    
%i    0    0    0    0      0      0      0      0         0                    
%i    0    0    0    0      0      0      0      0         0                    
/* PCV:IGS14_1973 OL/AL:FES2004  NONE     YN CLK:CoN ORB:CoN                    
/*     GeoForschungsZentrum Potsdam                                             
/*                                                                              
/*                                                                              
*  2017 12  1  2 15  0.00000000                                                 
PC01 -32261.762504  27107.179380   -885.009795     55.031982                    
PC02   4380.454967  41914.813084    999.224017    -50.206016                    
PC03 -14765.975339  39510.717814    -49.555221      9.784876                    
PC04 -39596.680736  14394.314405   -337.899540   -259.863156                    
PC05  21939.616418  35996.220748   1381.399783    -87.334362                    
PC06 -11624.398674  36693.813652  17786.921339   -643.520838                    
PC07 -13633.452754  21542.926532 -33460.977106   -222.911082                    
PC08 -26420.270770  28645.765227  15868.952672     22.327169                    
PC09  -2713.142375  42118.615290   3333.018579   -651.506711                    
PC10   4060.804738  27832.798856 -31182.988970    158.688635                    
PC11   8423.756375  14176.440961  22552.501082   -297.245059                    
PC12  -7792.854339  24436.325629  10917.810003    362.750327                    
PC13 -12419.107495  29942.272410  26830.866908    -45.358084                    
PC14  14921.697495  23176.492049  -4508.624135   -459.160440                    
PE01 -20637.889651 -17489.919700  12027.878754   -219.019190                    
PE02  20664.731016  17474.140902 -11990.723826     -2.361722                    
PE03  11819.299699  23844.945391 -12951.393867     29.562459                    
PE04 -17339.757461  -4651.126550  23531.781861     72.750691                    
PE05   -643.446778  29124.494826   5248.288546    370.315399                    
PE07  12708.226485 -17343.896973 -20345.041547    127.466744                    
PE08  17250.146639   4540.580762 -23622.758841   6689.530444                    
PE09 -12449.119822  17371.380685  20476.061323   6944.734277                    
PE11 -23347.731930  18182.636719    874.935346   1845.200847                    
PE12 -24146.220758   4016.487036 -16644.987810   2955.327525                    
PE14 -10710.033670  26512.338969   1047.976778   6672.218413                    
PE18  -1965.711884 -24782.128249 -14694.106538   6613.913815                    
PE19 -10866.840699 -25059.702922  11394.228338     16.822300                    
PE22  11442.848357  12195.808947  24417.360417   6302.188959                    
PE24 -18580.604243   7378.532412 -21824.424211   6994.731116                    
PE26   8990.609236 -21800.969569 -17895.955917   6553.023652                    
PE30  27828.993485   7194.982222   7083.467097   6280.509395                    
PG01  -6391.533831 -14060.441433 -21770.248107    -13.811721                    
PG02 -16908.892851  14655.554485  14607.103648    267.136298                    
PG03 -12308.593478 -22464.349259  -7128.625467    -34.107274                    
PG05  -5427.387419  16035.250083  20315.301242    -21.115923                    
PG06 -25099.267716   7549.848040   4360.129742    411.834930                    
PG07 -21197.686509  -7180.197938  14837.089081    272.217762                    
PG08   4837.734675 -25427.950645  -5624.647456    -82.518273                    
PG09 -11421.907561 -11955.742209  20750.549133    477.945014                    
PG10  19691.229944   4582.340590 -17273.156763    121.178352                    
PG11  -2121.003388 -17731.227061 -20256.646977   -728.771356                    
PG12   8763.405712  23105.773004 -10162.480296    362.446325                    
PG13 -12125.632889  23638.368958    281.428380    -94.425273                    
PG14  17238.377366 -13886.712510 -14277.641625    -89.679036                    
PG15  -1255.693386  25309.565464  -7458.577370   -357.324346                    
PG16   5534.698876 -15577.428429  20549.528186     35.918997                    
PG17 -16443.201682   4864.121458 -19863.550446   -141.076185                    
PG18  21042.946632  14082.549340  -7708.542705    633.170859                    
PG19 -17703.854288  12610.417714 -15690.996545   -472.573487                    
PG20  11134.863476  21690.197090  10428.439997    494.297748                    
PG21  22453.741418   5407.775637  13955.259850   -457.081092                    
PG22  -6672.707259 -21859.498387 -13270.464880   -207.110971                    
PG23  -4485.193627 -21082.589735  15492.387727   -218.864650                    
PG24   3383.930203  15259.765928 -21570.628490    -42.890526                    
PG25  17736.990757  19881.820559   1324.268941   -498.354573                    
PG26  13954.229112  -7014.361589  21498.577056   -342.332450                    
PG27  12437.861173 -22516.300155   6050.784307    352.396318                    
PG28 -19059.678987  -9815.917236 -15026.406649    667.114826                    
PG29   6966.841421  16624.303401  19502.375326    531.270734                    
PG30 -25958.014743  -1153.387025   5869.980143    124.147146                    
PG31  24935.139128  -7775.792899   5964.402790    158.546283                    
PG32  16872.822833  -7222.739112 -19152.483835   -527.214168                    
PJ01 -25599.542942  22832.653171  29613.223560   -231.836582                    
PJ02 -31017.092830  16999.619466 -18528.239184      4.339034                    
PR01  10930.268743  -2196.370391 -22947.989804     18.775061                    
PR02   2095.171456 -20178.303655 -15403.370618    282.888638                    
PR03  -7259.866764 -24401.982526   1238.052308    117.404101                    
PR04 -12415.172326 -13958.420685  17369.629226    240.369400                    
PR05 -10430.806007   3929.275693  22928.609493   -204.613736                    
PR06  -1424.386672  20814.404907  14679.187979    122.415877                    
PR07   7377.538105  24387.349640  -1527.297839    -23.551443                    
PR08  12312.037548  14586.964115 -16877.624166    -26.980498                    
PR09  -8587.566520   8757.132638 -22357.181960     48.044212                    
PR10  10951.964653  12290.091928 -19468.560375     12.607985                    
PR11  23494.471937   8753.590885  -4556.311472    -15.847783                    
PR13   7120.190155  -9110.614761  22724.011661     -4.998937                    
PR14 -10646.969665 -12484.099280  19552.841470     22.728506                    
PR15 -22115.515461  -9846.136173   7892.944437     -3.533983                    
PR16 -22355.994346    247.090351 -12191.760237     80.116758                    
PR17   2432.079255 -15524.949905 -20096.841993     89.870656                    
PR18 -11532.026263  -3084.814207 -22535.697339    175.637022                    
PR19 -19498.859107  11044.196351 -12177.982412    -35.394019                    
PR20 -15748.570865  19057.061825   6381.354593   -317.726236                    
PR21  -2252.925122  15351.143678  20238.490863    144.826606                    
PR22  12526.879831   1776.403772  22130.530594      2.143039                    
PR23  19577.900471 -13399.844175   9370.499806    121.826446                    
PR24  15103.673904 -19372.331807  -6884.400710   -159.121247                    
EOF                                     
